PRAETORIAN SDA_619      
1 65582U 25203T   26068.60413385  .00000240  00000+0  20555-3 0  9995
2 65582  81.3013 102.9558 0009419 101.1337 259.0878 13.83929489 25555
SDA_1675                
1 65985U 25230M   26068.73353885  .00000235  00000+0  19794-3 0  9991
2 65985  81.2979 303.9400 0003716  72.4349 287.7214 13.84748964 20047
